OSCAR 7 (AO-7)          
1 07530U 74089B   20232.92135925 -.00000043  00000-0  17170-4 0  9996
2 07530 101.8052 202.3209 0011777 241.6746 179.9712 12.53644657 93949
UOSAT 2 (UO-11)         
1 14781U 84021B   20232.90815944  .00000041  00000-0  11147-4 0  9998
2 14781  97.5902 241.7252 0008439   3.6993 356.4282 14.83185275941235
LUSAT (LO-19)           
1 20442U 90005G   20232.84411552 -.00000011  00000-0  12418-4 0  9998
2 20442  98.6957 180.3212 0011276 333.8255  26.2358 14.32958632597630
EYESAT A (AO-27)        
1 22825U 93061C   20232.90122172 -.00000016  00000-0  11812-4 0  9996
2 22825  98.9250 236.9543 0008252 185.2043 174.9054 14.30090774402883
ITAMSAT (IO-26)         
1 22826U 93061D   20232.94271106 -.00000015  00000-0  12227-4 0  9993
2 22826  98.9190 236.9367 0008997 173.4751 186.6549 14.30426955403123
RADIO ROSTO (RS-15)     
1 23439U 94085A   20232.89039481 -.00000050  00000-0 -21659-3 0  9991
2 23439  64.8163 143.6634 0151106  30.1943 330.7584 11.27568887 56174
JAS-2 (FO-29)           
1 24278U 96046B   20232.90706834  .00000006  00000-0  43775-4 0  9990
2 24278  98.5880 334.4467 0349848 210.3969 147.6469 13.53099355185464
TECHSAT 1B (GO-32)      
1 25397U 98043D   20232.83767201 -.00000020  00000-0  10533-4 0  9992
2 25397  98.7307 173.8632 0000637 174.9372 185.1813 14.23688975148576
ISS (ZARYA)             
1 25544U 98067A   20232.96637338  .00001067  00000-0  27349-4 0  9997
2 25544  51.6447  32.8252 0001475  46.5813  96.3266 15.49173608241907
PCSAT (NO-44)           
1 26931U 01043C   20232.64975534 -.00000029  00000-0  20523-4 0  9999
2 26931  67.0531 339.3095 0006152 275.0527  84.9872 14.30584725986111
SAUDISAT 1C (SO-50)     
1 27607U 02058C   20232.59784646 -.00000052  00000-0  13002-4 0  9993
2 27607  64.5550 181.3086 0040087 157.2848 203.0040 14.75652572950041
CUTE-1 (CO-55)          
1 27844U 03031E   20232.74818587  .00000031  00000-0  33699-4 0  9997
2 27844  98.6823 239.5278 0008892 227.9314 132.1108 14.22251624889093
CUBESAT XI-IV (CO-57)   
1 27848U 03031J   20232.51176822  .00000019  00000-0  28620-4 0  9999
2 27848  98.6889 239.8569 0008640 242.4941 117.5359 14.21836908888901
MOZHAYETS 4 (RS-22)     
1 27939U 03042A   20232.89272410  .00000136  00000-0  33020-4 0  9993
2 27939  98.0998   6.9005 0013704 148.3098 211.8933 14.66879589903319
CUBESAT XI-V            
1 28895U 05043F   20232.91774402  .00000072  00000-0  22620-4 0  9992
2 28895  98.0183   7.5254 0018170  81.8630 278.4633 14.63791410789899
CUTE-1.7+APD II (CO-65) 
1 32785U 08021C   20232.72379615  .00000147  00000-0  21449-4 0  9991
2 32785  97.5769 217.9710 0011493 285.8788  74.1163 14.88501637667285
DELFI-C3 (DO-64)        
1 32789U 08021G   20232.84470519  .00000899  00000-0  62479-4 0  9995
2 32789  97.4142 273.4186 0013768  98.2985 261.9806 15.07863524671361
SEEDS II (CO-66)        
1 32791U 08021J   20232.54806795  .00000174  00000-0  22940-4 0  9999
2 32791  97.5439 223.9226 0011703 250.4730 109.5225 14.91091823667786
YUBILEINY (RS-30)       
1 32953U 08025A   20232.73734695  .00000037  00000-0  19437-3 0  9997
2 32953  82.4998 238.5442 0017893 276.4970  83.4072 12.43097716555497
KKS-1 (KISEKI)          
1 33499U 09002H   20232.85513194  .00000051  00000-0  15426-4 0  9992
2 33499  98.3100  89.3472 0007825 285.9548  74.0798 14.75552423621931
SWISSCUBE               
1 35932U 09051B   20232.76641003  .00000086  00000-0  30426-4 0  9996
2 35932  98.6121  57.0883 0006486 297.8192  62.2347 14.56415892579048
BEESAT-1                
1 35933U 09051C   20232.81425277  .00000065  00000-0  25592-4 0  9991
2 35933  98.6112  59.0055 0004874 315.2644  44.8160 14.56488922579120
ITUPSAT1                
1 35935U 09051E   20232.77745902  .00000064  00000-0  25804-4 0  9993
2 35935  98.6218  59.1587 0007164 311.7358  48.3225 14.55632667578911
XIWANG-1 (HOPE-1)       
1 36122U 09072B   20232.71706325  .00000002  00000-0  11680-3 0  9993
2 36122 100.0956 220.3868 0008512  68.1547 292.0472 13.16356366513198
JUGNU                   
1 37839U 11058B   20232.80103812  .00000296  00000-0  16224-4 0  9993
2 37839  19.9605 258.6033 0019001   7.4137 148.1562 14.12685773457751
SRMSAT                  
1 37841U 11058D   20232.59169311  .00000335  00000-0  38674-4 0  9995
2 37841  19.9731 325.5084 0011675 217.3554 172.0250 14.10666956457095
M-CUBED & EXP-1 PRIME   
1 37855U 11061F   20232.87518152  .00001120  00000-0  62848-4 0  9999
2 37855 101.7180 353.9877 0170490 246.6086 111.7116 15.06420916480759
STRAND-1                
1 39090U 13009E   20232.80340336  .00000008  00000-0  17910-4 0  9990
2 39090  98.4521  75.7079 0010390  95.2293 265.0079 14.35140917391771
SOMP                    
1 39134U 13015E   20232.88641942  .00000936  00000-0  50704-4 0  9999
2 39134  64.8627  72.0617 0028075 233.2997 126.5551 15.21189814405324
BEESAT-3                
1 39135U 13015F   20232.87286494  .00000557  00000-0  36562-4 0  9991
2 39135  64.8659  96.5819 0035065 232.4920 127.3017 15.18281247404840
BEESAT-2                
1 39136U 13015G   20232.88008151  .00000618  00000-0  40145-4 0  9995
2 39136  64.8722 101.7514 0033912 272.8701  86.8544 15.17679603404746
ZACUBE-1 (TSHEPISOSAT)  
1 39417U 13066B   20232.92987683  .00000158  00000-0  25965-4 0  9996
2 39417  97.5674 227.4288 0060359  70.2690 290.5021 14.81304581364438
GOMX-1                  
1 39430U 13066Q   20232.81343373  .00000128  00000-0  32387-4 0  9994
2 39430  97.7930 167.5189 0150931 345.5537  14.1370 14.59425133359048
CUBEBUG-2 (LO-74)       
1 39440U 13066AA  20232.94199186  .00000125  00000-0  24201-4 0  9993
2 39440  97.6356 211.9520 0081150 133.2854 227.5164 14.76039234361948
FUNCUBE-1 (AO-73)       
1 39444U 13066AE  20232.89098971  .00000201  00000-0  30822-4 0  9992
2 39444  97.5614 229.6567 0059395  62.5259 298.1976 14.82163845362763
UWE-3                   
1 39446U 13066AG  20232.88958369  .00000135  00000-0  24403-4 0  9993
2 39446  97.6022 219.0654 0071457 102.5312 258.3905 14.78572669361949
SPROUT                  
1 39770U 14029E   20232.90501540  .00000348  00000-0  44150-4 0  9998
2 39770  97.8998 338.9285 0010080 115.7319 244.4933 14.87819867338497
UNISAT-6                
1 40012U 14033C   20232.87065089  .00000143  00000-0  28473-4 0  9996
2 40012  97.7049  84.6750 0058793 154.0123 206.4059 14.74142418331765
DUCHIFAT-1              
1 40021U 14033M   20232.76881730  .00000372  00000-0  43466-4 0  9996
2 40021  97.9427 164.3980 0014365  79.3582 280.9253 14.90951218335326
QB50P1                  
1 40025U 14033R   20232.75101028  .00000222  00000-0  29510-4 0  9992
2 40025  97.9135 157.0520 0013896  90.6699 269.6110 14.89171281334516
NUDT-PHONESAT           
1 40900U 15049B   20232.81271009  .00001474  00000-0  63082-4 0  9998
2 40900  97.4301 243.2225 0013953 117.1998   8.2640 15.24321447272842
ZDPS 2A                 
1 40901U 15049C   20232.81021009  .00000886  00000-0  46291-4 0  9991
2 40901  97.4621 237.7018 0014134 146.4518 338.0148 15.18406011272189
ZDPS 2B                 
1 40902U 15049D   20232.80153878  .00000832  00000-0  43661-4 0  9990
2 40902  97.4616 234.9669 0014105 143.8024  29.7269 15.18402393272150
XW-2A                   
1 40903U 15049E   20232.79275863  .00001324  00000-0  31610-4 0  9996
2 40903  97.2832 281.7780 0014212  38.9550  52.8425 15.43298282276243
KAITUO 1A               
1 40904U 15049F   20232.78174376  .00000178  00000-0  12778-4 0  9993
2 40904  97.4776 232.8883 0014841 157.4082  15.4725 15.15758186271830
2015-049G               
1 40905U 15049G   20232.77363602  .00000018  00000-0  45232-5 0  9990
2 40905  97.4861 230.0644 0015923 155.8225 329.0531 15.14599060271667
XW-2C                   
1 40906U 15049H   20232.81108887  .00000490  00000-0  28826-4 0  9991
2 40906  97.4778 233.2318 0015344 148.2981 335.8698 15.16139165271858
XW-2D                   
1 40907U 15049J   20232.85979465  .00000565  00000-0  32476-4 0  9993
2 40907  97.4762 232.9951 0014819 145.2378 332.8385 15.16380996271887
LILACSAT-2              
1 40908U 15049K   20232.81992069  .00000002  00000-0  37416-5 0  9991
2 40908  97.4918 231.2217 0016289 157.0450 280.8271 15.14079616271588
XW-2F                   
1 40910U 15049M   20232.77578568  .00000576  00000-0  31581-4 0  9995
2 40910  97.4685 235.5822 0015560 135.8087 311.2116 15.18045801271942
XW-2B                   
1 40911U 15049N   20232.84716529  .00000314  00000-0  19643-4 0  9990
2 40911  97.4774 233.6818 0014622 145.9001 333.7867 15.16303761271775
KAITUO 1B               
1 40912U 15049P   20232.86720380  .00000825  00000-0  40852-4 0  9996
2 40912  97.4482 239.8826 0016283 114.5758 329.8193 15.20454717272351
TIANWANG 1C (TW-1C)     
1 40926U 15051B   20232.78650894  .00019374  00000-0  17395-3 0  9991
2 40926  97.0788 285.0603 0005480 186.2497 267.6603 15.68294607276946
TIANWANG 1A (TW-1A)     
1 40928U 15051D   20232.85160625  .00002102  00000-0  49660-4 0  9991
2 40928  97.1055 259.1362 0009220 325.4530 208.9959 15.42917423275144
LAPAN-A2                
1 40931U 15052B   20231.48763701  .00000674  00000-0  46749-5 0  9996
2 40931   6.0003 253.0557 0013528  73.7269 286.4350 14.76640244264444
E-ST@R-II               
1 41459U 16025D   20232.76047152  .00000683  00000-0  38429-4 0  9995
2 41459  98.1102 346.0706 0164551 359.2911   0.8056 15.06583820236978
AAUSAT 4                
1 41460U 16025E   20232.79938165  .00000779  00000-0  41999-4 0  9995
2 41460  98.1069 348.6679 0152811 346.9366  12.7914 15.08949256237193
NUSAT-1 (FRESCO)        
1 41557U 16033B   20232.89823278  .00000945  00000-0  37108-4 0  9992
2 41557  97.4036 322.7152 0012448 217.6979 142.3390 15.28145003235466
BEESAT-4                
1 41619U 16040W   20232.91431057  .00001039  00000-0  45539-4 0  9994
2 41619  97.3147 290.9344 0009822 323.2405  36.8158 15.24154540219065
